     2.100          NAVIGATION                              RINEX VERSION / TYPE
fic2rin                                 12/29/2012 00:19:51 PGM / RUN BY / DATE
                                                            END OF HEADER
29 12 12 28 14  0  0.0  .392102636397D-03  .386535248253D-11  .000000000000D+00
     .470000000000D+02 -.593437500000D+02  .424089093584D-08  .139975484740D+01
    -.301189720631D-05  .180142093450D-02  .119116157293D-04  .515373147583D+04
     .482400000000D+06  .353902578354D-07  .289962325592D+00 -.204890966415D-07
     .965329645283D+00  .155000000000D+03 -.110952361259D+01 -.768282002029D-08
     .444661379074D-09  .100000000000D+01  .172000000000D+04  .000000000000D+00
     .240000000000D+01  .000000000000D+00 -.931322574615D-08  .470000000000D+02
     .475206000000D+06  .400000000000D+01
30 12 12 28 14  0  0.0 -.270072836429D-03  .118234311230D-10  .000000000000D+00
     .127000000000D+03 -.107062500000D+03  .455876131928D-08 -.155354889422D+01
    -.523217022419D-05  .108627488371D-01  .260211527348D-05  .515360544968D+04
     .482400000000D+06 -.186264514923D-08 -.904455495459D+00  .298023223877D-06
     .962296844943D+00  .327968750000D+03  .161102531733D+01 -.833356141200D-08
    -.221437795202D-09  .100000000000D+01  .172000000000D+04  .000000000000D+00
     .685000000000D+01  .000000000000D+00 -.465661287308D-08  .127000000000D+03
     .475206000000D+06  .400000000000D+01
31 12 12 28 14  0  0.0  .294671393931D-03  .204636307899D-11  .000000000000D+00
     .160000000000D+02  .885937500000D+02  .409052752975D-08  .198089057970D+01
     .465102493763D-05  .812369177584D-02  .160373747349D-05  .515379876900D+04
     .482400000000D+06  .558793544769D-07 -.182941776255D+01  .353902578354D-07
     .980613091317D+00  .355062500000D+03 -.826883291465D+00 -.807462205471D-08
     .206080012631D-09  .100000000000D+01  .172000000000D+04  .000000000000D+00
     .240000000000D+01  .000000000000D+00 -.135041773319D-07  .160000000000D+02
     .475206000000D+06  .400000000000D+01
32 12 12 28 14  0  0.0 -.521012116224D-03 -.352429196937D-11  .000000000000D+00
     .890000000000D+02 -.224687500000D+02  .479341395065D-08  .260544871665D+01
    -.111386179924D-05  .116774970666D-01  .809505581856D-05  .515378064919D+04
     .482400000000D+06 -.670552253723D-07  .242468854434D+01  .188127160072D-06
     .950023187548D+00  .216875000000D+03 -.424486459988D+00 -.791818696713D-08
    -.722172938544D-09  .100000000000D+01  .172000000000D+04  .000000000000D+00
     .340000000000D+01  .000000000000D+00 -.325962901115D-08  .890000000000D+02
     .475206000000D+06  .400000000000D+01
26 12 12 28 13 59 44.0 -.158810522407D-03  .135287336889D-10  .000000000000D+00
     .500000000000D+01  .112406250000D+03  .359014954414D-08 -.274058261140D+01
     .573508441448D-05  .209651119076D-01  .991486012936D-05  .515366163826D+04
     .482384000000D+06  .236555933952D-06 -.280845665161D+01 -.875443220139D-07
     .981213518247D+00  .197062500000D+03  .121340608810D+01 -.717887045734D-08
     .207151485834D-10  .100000000000D+01  .172000000000D+04  .000000000000D+00
     .240000000000D+01  .000000000000D+00 -.605359673500D-08  .500000000000D+01
     .475416000000D+06  .400000000000D+01
10 12 12 28 13 59 44.0 -.639688223600D-04 -.147792889038D-11  .000000000000D+00
     .100000000000D+01 -.207812500000D+02  .514950021164D-08 -.477763793260D+00
    -.103563070297D-05  .121969335014D-01  .710040330887D-05  .515374542618D+04
     .482384000000D+06 -.745058059692D-08  .235609469431D+01  .210478901863D-06
     .944225128252D+00  .232062500000D+03  .786394217504D+00 -.840177853923D-08
    -.642526763819D-09  .100000000000D+01  .172000000000D+04  .000000000000D+00
     .240000000000D+01  .000000000000D+00 -.279396772385D-08  .100000000000D+01
     .479136000000D+06  .400000000000D+01
32 12 12 28 13 59 44.0 -.521009787917D-03 -.352429196937D-11  .000000000000D+00
     .700000000000D+01 -.224687500000D+02  .479377110838D-08  .260311484444D+01
    -.111386179924D-05  .116774915950D-01  .809505581856D-05  .515378064156D+04
     .482384000000D+06 -.670552253723D-07  .242468867893D+01  .188127160072D-06
     .950023199251D+00  .216875000000D+03 -.424486135220D+00 -.791818696713D-08
    -.722172938544D-09  .100000000000D+01  .172000000000D+04  .000000000000D+00
     .240000000000D+01  .000000000000D+00 -.325962901115D-08  .700000000000D+01
     .479796000000D+06  .400000000000D+01
10 12 12 28 15 59 44.0 -.639795325696D-04 -.147792889038D-11  .000000000000D+00
     .340000000000D+02 -.239687500000D+02  .522057460074D-08  .572383018827D+00
    -.979751348495D-06  .121964681894D-01  .710971653461D-05  .515374452591D+04
     .489584000000D+06 -.106170773506D-06  .235603420850D+01  .137835741043D-06
     .944220441063D+00  .232906250000D+03  .786389454243D+00 -.840535011657D-08
    -.680028325909D-09  .100000000000D+01  .172000000000D+04  .000000000000D+00
     .240000000000D+01  .000000000000D+00 -.279396772385D-08  .340000000000D+02
     .482406000000D+06  .400000000000D+01
32 12 12 28 15 59 44.0 -.521034933627D-03 -.352429196937D-11  .000000000000D+00
     .800000000000D+01 -.199062500000D+02  .482127225391D-08 -.262995464110D+01
    -.105984508991D-05  .116779864766D-01  .820122659206D-05  .515377973175D+04
     .489584000000D+06 -.189989805222D-06  .242463167486D+01  .119209289551D-06
     .950018204849D+00  .214156250000D+03 -.424484073968D+00 -.790854370830D-08
    -.683599903251D-09  .100000000000D+01  .172000000000D+04  .000000000000D+00
     .240000000000D+01  .000000000000D+00 -.325962901115D-08  .800000000000D+01
     .482406000000D+06  .400000000000D+01
 1 12 12 28 16  0  0.0  .290053896606D-03  .216004991671D-11  .000000000000D+00
     .500000000000D+02  .220000000000D+02  .493199115151D-08 -.281327010998D+01
     .109151005745D-05  .151586567517D-02  .627711415291D-05  .515370005417D+04
     .489600000000D+06 -.316649675369D-07  .128928264131D+01 -.726431608200D-07
     .959711052389D+00  .258687500000D+03  .502405973900D+00 -.807283626603D-08
     .426803492364D-09  .100000000000D+01  .172000000000D+04  .000000000000D+00
     .240000000000D+01  .000000000000D+00  .838190317154D-08  .500000000000D+02
     .482406000000D+06  .400000000000D+01
 2 12 12 28 16  0  0.0  .412906054407D-03  .125055521494D-11  .000000000000D+00
     .100000000000D+03  .231875000000D+02  .542629745564D-08 -.182214676418D+01
     .118464231491D-05  .118019651854D-01  .573135912418D-05  .515357520676D+04
     .489600000000D+06  .111758708954D-06  .127088856184D+01 -.115483999252D-06
     .938244508484D+00  .256000000000D+03 -.270032883025D+01 -.829677416538D-08
     .562523431359D-09  .100000000000D+01  .172000000000D+04  .000000000000D+00
     .240000000000D+01  .000000000000D+00 -.176951289177D-07  .100000000000D+03
     .482406000000D+06  .400000000000D+01
 3 12 12 28 16  0  0.0  .147697050124D-03  .511590769747D-11  .000000000000D+00
     .140000000000D+03 -.842812500000D+02  .475912680816D-08 -.165808433590D+01
    -.420957803726D-05  .159220490605D-01  .108554959297D-04  .515367168045D+04
     .489600000000D+06  .337138772011D-06  .103795645471D+00  .173225998878D-06
     .933526084194D+00  .148781250000D+03  .126138250553D+01 -.789104297933D-08
     .292155026572D-09  .100000000000D+01  .172000000000D+04  .000000000000D+00
     .485000000000D+01  .000000000000D+00 -.465661287308D-08  .140000000000D+03
     .482406000000D+06  .400000000000D+01
 4 12 12 28 16  0  0.0  .884947367013D-04  .111413100967D-10  .000000000000D+00
     .230000000000D+02  .215625000000D+02  .553165898723D-08  .145484764445D+01
     .114925205708D-05  .104102686746D-01  .626221299171D-05  .515371117210D+04
     .489600000000D+06 -.273808836937D-06  .128750594632D+01  .540167093277D-07
     .937274877604D+00  .250937500000D+03  .948467548258D+00 -.850499712441D-08
     .375015620906D-09  .100000000000D+01  .172000000000D+04  .000000000000D+00
     .240000000000D+01  .000000000000D+00 -.651925802231D-08  .230000000000D+02
     .482406000000D+06  .400000000000D+01
 5 12 12 28 16  0  0.0 -.375440809876D-03 -.216004991671D-11  .000000000000D+00
     .160000000000D+02 -.233437500000D+02  .501235164171D-08  .221223355549D+00
    -.120885670185D-05  .316139345523D-02  .696070492268D-05  .515380763626D+04
     .489600000000D+06 -.111758708954D-07  .233572549842D+01  .204890966415D-07
     .949352498125D+00  .235968750000D+03  .309967923431D+00 -.819141263379D-08
    -.613596987349D-09  .100000000000D+01  .172000000000D+04  .000000000000D+00
     .240000000000D+01  .000000000000D+00 -.102445483208D-07  .160000000000D+02
     .482406000000D+06  .400000000000D+01
 6 12 12 28 16  0  0.0  .408513937145D-03 -.134150468512D-10  .000000000000D+00
     .880000000000D+02 -.802187500000D+02  .473948313278D-08  .241349412989D+00
    -.420585274696D-05  .754210248124D-02  .112075358629D-04  .515369343758D+04
     .489600000000D+06  .707805156708D-07  .182060785482D+00 -.689178705215D-07
     .940235958385D+00  .153687500000D+03 -.399704146425D+00 -.810855203945D-08
     .327156484524D-09  .100000000000D+01  .172000000000D+04  .000000000000D+00
     .240000000000D+01  .000000000000D+00 -.512227416039D-08  .880000000000D+02
     .482406000000D+06  .400000000000D+01
 7 12 12 28 16  0  0.0  .162382144481D-03  .443378667114D-11  .000000000000D+00
     .150000000000D+02  .840312500000D+02  .427767818247D-08  .307132594503D+01
     .434368848801D-05  .605134281795D-02  .215508043766D-05  .515371122360D+04
     .489600000000D+06 -.912696123123D-07 -.183335053546D+01 -.149011611938D-07
     .975593262015D+00  .346187500000D+03 -.292135684967D+01 -.810176604250D-08
     .243581574722D-09  .100000000000D+01  .172000000000D+04  .000000000000D+00
     .240000000000D+01  .000000000000D+00 -.111758708954D-07  .150000000000D+02
     .482406000000D+06  .400000000000D+01
